EYESAT-1 (AO-27)        
1 22825U 93061C   17183.86588048 -.00000004  00000-0  16232-4 0  9998
2 22825  98.8130 149.6409 0007328 288.8494  71.1893 14.29999578239372
CUTE-1 (CO-55)          
1 27844U 03031E   17185.24329278  .00000048  00000-0  41375-4 0  9997
2 27844  98.6889 194.0016 0008647 302.4446  57.5895 14.22045040726707
CUBESAT XI-IV (CO-57)   
1 27848U 03031J   17184.96616933  .00000041  00000-0  38770-4 0  9994
2 27848  98.6981 193.9945 0008719 313.9106  46.1351 14.21658853726558
CUBESAT XI 5            
1 28895U 05043F   17185.13048477  .00000131  00000-0  33996-4 0  9999
2 28895  97.8664 346.6423 0018338  90.3743 269.9561 14.63406629622730
CUTE-1.7+APD II (CO-65) 
1 32785U 08021C   17185.18991171  .00000212  00000-0  28791-4 0  9991
2 32785  97.5655 208.6862 0014689 110.0388 250.2412 14.87899534497357
COMPASS-1               
1 32787U 08021E   17185.04314050  .00000603  00000-0  63766-4 0  9998
2 32787  97.5587 217.5213 0014240  83.4139 276.8701 14.92617534497968
AAUSAT-II               
1 32788U 08021F   17185.04613423  .00000770  00000-0  77455-4 0  9990
2 32788  97.5576 220.3954 0013614  76.7679 283.5059 14.93891049498091
DELFI-C3 (DO-64)        
1 32789U 08021G   17185.24615289  .00001718  00000-0  12544-3 0  9995
2 32789  97.5578 243.1174 0013752  48.8295 311.4115 15.04919156499333
CANX-2                  
1 32790U 08021H   17185.03824494  .00000198  00000-0  27391-4 0  9992
2 32790  97.5633 206.9052 0015346 112.1020 248.1828 14.87625441497269
SEEDS II (CO-66)        
1 32791U 08021J   17185.03031936  .00000404  00000-0  47037-4 0  9993
2 32791  97.5623 212.9506 0015094  96.7743 263.5193 14.90237129497575
SWISSCUBE               
1 35932U 09051B   17185.17875082  .00000102  00000-0  34125-4 0  9999
2 35932  98.4978 323.9884 0007489 189.5936 170.5119 14.56021373412750
BEESAT                  
1 35933U 09051C   17185.16368989  .00000105  00000-0  34769-4 0  9999
2 35933  98.5016 325.2951 0005394 200.5179 159.5803 14.56140187412898
ITUPSAT 1               
1 35935U 09051E   17185.16118618  .00000090  00000-0  31738-4 0  9999
2 35935  98.5126 325.5462 0007819 197.2713 162.8218 14.55333184412709
TISAT 1                 
1 36799U 10035E   17185.26393100  .00000262  00000-0  32960-4 0  9993
2 36799  98.0637 308.3374 0010961 270.7415  89.2546 14.90408317378122
M-CUBED & EXP-1 PRIME   
1 37855U 11061F   17185.16989138  .00001397  00000-0  80720-4 0  9995
2 37855 101.7142  65.2299 0180836  31.3903 329.7951 15.03098659308872
HORYU 2                 
1 38340U 12025D   17185.04262209  .00000199  00000-0  37438-4 0  9993
2 38340  98.3761 189.5577 0010485 234.7327 125.2900 14.75348875265365
STRAND-1                
1 39090U 13009E   17185.24487924  .00000011  00000-0  19299-4 0  9992
2 39090  98.5530  30.5219 0008038 247.3789 112.6546 14.34971902227907
BRITE-AUSTRIA           
1 39091U 13009F   17185.18864495  .00000011  00000-0  19372-4 0  9990
2 39091  98.5492  29.8477 0009341 256.4464 103.5681 14.35031850227922
UNIBRITE                
1 39092U 13009G   17185.25922310  .00000012  00000-0  19757-4 0  9998
2 39092  98.5501  29.6067 0008248 248.5050 111.5256 14.34906327227910
AIST-2                  
1 39133U 13015D   17185.25432852  .00000036  00000-0  15319-4 0  9994
2 39133  64.8724 231.6200 0037807 279.4175  80.2672 15.04295609230478
SOMP                    
1 39134U 13015E   17185.21631076  .00000920  00000-0  54529-4 0  9998
2 39134  64.8640 171.4947 0036607 263.9777  95.7177 15.17837182231685
BEESAT-2                
1 39136U 13015G   17185.20583567  .00000780  00000-0  51392-4 0  9999
2 39136  64.8687 182.4539 0033244 280.0589  79.6785 15.15116983231461
NEE-01 PEGASUS          
1 39151U 13018B   17185.21036863  .00000110  00000-0  21672-4 0  9997
2 39151  97.9839 276.6222 0017004   0.2039 359.9176 14.79725039226051
CUBEBUG-1 (CAPITAN BETO)
1 39153U 13018D   17185.19503737  .00000119  00000-0  22640-4 0  9990
2 39153  97.9860 277.4009 0016857 358.5666   1.5494 14.80187911226101
ESTCUBE 1               
1 39161U 13021C   17185.19389669  .00000143  00000-0  30733-4 0  9998
2 39161  98.0284 270.9766 0011010  90.6608 269.5887 14.71904371223258
POPACS 1                
1 39268U 13055D   17185.14352391  .00006847  00000-0  19650-3 0  9991
2 39268  81.0033 350.4928 0651455 169.8507 191.6617 14.30992688193147
POPACS 2                
1 39269U 13055E   17185.18684533  .00002655  00000-0  78587-4 0  9990
2 39269  81.0163   5.5620 0700462 209.2340 146.7889 14.19931312192499
POPACS 3                
1 39270U 13055F   17184.96783824  .00001070  00000-0  34012-4 0  9995
2 39270  81.0167  14.0425 0724543 235.0456 118.0611 14.13180378172444
FIREFLY                 
1 39404U 13064AA  17185.10489177  .00035345  00000-0  20722-3 0  9999
2 39404  40.4967 196.2175 0007739 193.3382 166.7242 15.77467583203936
ZACUBE-1 (TSHEPISOSAT)  
1 39417U 13066B   17185.12187830  .00000206  00000-0  32619-4 0  9995
2 39417  97.6282 226.5435 0058508 213.3177 146.4348 14.80717671195284
WNISAT-1                
1 39423U 13066H   17185.21348251  .00000043  00000-0  18031-4 0  9999
2 39423  97.6836 172.1768 0176527  25.3483 335.6251 14.52848042191719
TRITON-1                
1 39427U 13066M   17185.03202102  .00000197  00000-0  39885-4 0  9997
2 39427  97.6371 199.2596 0112902 295.1730  63.7801 14.67467036193320
GOMX 1                  
1 39430U 13066Q   17185.25019674  .00000188  00000-0  43364-4 0  9992
2 39430  97.6650 182.9849 0151667 349.7802  10.0325 14.58877211192416
BRITE-PL                
1 39431U 13066R   17184.99306984  .00000097  00000-0  30417-4 0  9990
2 39431  97.7070 161.2591 0204046  63.8790 298.3241 14.46847594190883
HUMSAT-D                
1 39433U 13066T   17185.16146223  .00000315  00000-0  36711-4 0  9996
2 39433  97.6514 247.7811 0031897 158.0475 202.2119 14.91447542196547
EAGLE 2                 
1 39436U 13066W   17185.24614885  .00013827  00000-0  37529-3 0  9991
2 39436  97.7092 292.0347 0010344  29.1936 330.9884 15.37676460198121
CUBEBUG-2 (LO-74)       
1 39440U 13066AA  17185.13117068  .00000186  00000-0  33281-4 0  9991
2 39440  97.6276 215.5959 0079365 244.9450 114.3507 14.75458850193396
NEE-02 KRYSAOR          
1 39441U 13066AB  17185.08025986  .00000135  00000-0  26588-4 0  9999
2 39441  97.6257 214.2326 0080692 248.8011 110.4564 14.74624103193318
FUNCUBE-1 (AO-73)       
1 39444U 13066AE  17185.16071497  .00000250  00000-0  37584-4 0  9995
2 39444  97.6298 227.6558 0057783 209.8097 149.9821 14.81452265194126
UWE-3                   
1 39446U 13066AG  17185.07298373  .00000193  00000-0  32746-4 0  9992
2 39446  97.6268 220.7298 0069279 229.6328 129.8823 14.77991675193698
BRITE-TORONTO           
1 40020U 14033L   17185.16309489  .00000053  00000-0  17937-4 0  9998
2 40020  97.8341  55.1794 0086150 273.1297  86.0053 14.66395730162579
DUCHIFAT-1              
1 40021U 14033M   17185.22284571  .00000329  00000-0  40141-4 0  9999
2 40021  97.9181  98.4133 0011621 242.9722 117.0310 14.89902375165138
FLOCK 1C-10             
1 40023U 14033P   17185.20162979  .00000676  00000-0  78383-4 0  9990
2 40023  97.9198  97.4432 0011566 253.2969 106.6997 14.88729284165034
NANOSATC-BR1            
1 40024U 14033Q   17185.16545063  .00000347  00000-0  42627-4 0  9992
2 40024  97.9139  97.2168 0010932 244.3997 115.6090 14.89226337164554
QB50P1                  
1 40025U 14033R   17185.22126515  .00000223  00000-0  30144-4 0  9991
2 40025  97.9120  96.2893 0011130 247.3500 112.6540 14.88428496164515
FLOCK 1C-7              
1 40026U 14033S   17185.00851573  .00000669  00000-0  76256-4 0  9995
2 40026  97.9216  97.9940 0010119 248.9241 111.0891 14.89464467165059
FLOCK 1C-1              
1 40027U 14033T   17184.69843584  .00000280  00000-0  35907-4 0  9990
2 40027  97.9202  97.1709 0011728 249.7188 110.2765 14.88787814164970
POPSAT-HIP-1            
1 40028U 14033U   17185.05259706  .00000153  00000-0  22620-4 0  9996
2 40028  97.9156  96.3993 0012591 247.0360 112.9540 14.88297048164983
FLOCK 1C-2              
1 40029U 14033V   17185.19753826  .00000614  00000-0  71616-4 0  9995
2 40029  97.9207  97.5280 0012744 244.3185 115.6741 14.88808112165038
FLOCK 1C-4              
1 40031U 14033X   17185.21560462  .00000541  00000-0  64011-4 0  9993
2 40031  97.9205  97.5270 0013116 243.2067 116.7766 14.88656872165021
QB50P2                  
1 40032U 14033Y   17185.20651562  .00000198  00000-0  27632-4 0  9991
2 40032  97.9092  95.3769 0010566 241.5302 118.4851 14.87986197164459
FLOCK 1C-11             
1 40033U 14033Z   17185.05546698  .00000278  00000-0  34625-4 0  9997
2 40033  97.9216  98.7997 0010937 234.4460 125.5740 14.90173338165104
ANTELSAT                
1 40034U 14033AA  17185.19014634  .00000145  00000-0  29382-4 0  9990
2 40034  97.8575  68.5944 0057712 237.6329 121.9287 14.73705117163426
FLOCK 1C-9              
1 40035U 14033AB  17184.98407206  .00000369  00000-0  45416-4 0  9992
2 40035  97.9222  97.6817 0010464 240.0778 119.9404 14.88859715165002
FLOCK 1C-6              
1 40036U 14033AC  17185.20546900  .00000708  00000-0  81303-4 0  9996
2 40036  97.9230  98.1143 0010827 238.7107 121.3093 14.88968977165050
PERSEUS-M2              
1 40037U 14033AD  17185.22742115  .00000043  00000-0  11230-4 0  9999
2 40037  97.9114  93.9095 0013064 248.0271 111.9557 14.86230290164847
FLOCK 1C-5              
1 40038U 14033AE  17185.21283166  .00000621  00000-0  72080-4 0  9997
2 40038  97.9222  97.9295 0013039 237.7039 122.2888 14.88958155165047
PERSEUS-M1              
1 40039U 14033AF  17185.23149308  .00000037  00000-0  10581-4 0  9998
2 40039  97.9120  93.4685 0012948 243.5936 116.3951 14.85854396164298
FLOCK 1C-8              
1 40040U 14033AG  17184.98012353  .00000295  00000-0  35782-4 0  9996
2 40040  97.9256  99.8420 0011568 225.2283 134.7999 14.90895307165139
